H1 CPF 01  gfz 2021 09 18 12  7612 tandemx   
H2 1003001  6202 36605    2021 09 18 12 59 42 2021 09 23 00 00 42   120 1 1  0 0 0
H9
10 0 59476  43182.000000  0    -892830.355    926650.197  -6774180.627
10 0 59476  43302.000000  0    -860154.899   1826266.937  -6593139.818
10 0 59476  43422.000000  0    -797118.170   2693413.818  -6297082.170
10 0 59476  43542.000000  0    -705508.267   3512526.116  -5891105.951
10 0 59476  43662.000000  0    -587872.957   4268880.298  -5382216.190
10 0 59476  43782.000000  0    -447460.598   4948859.145  -4779214.803
10 0 59476  43902.000000  0    -288144.940   5540202.217  -4092559.983
10 0 59476  44022.000000  0    -114334.393   6032235.571  -3334194.327
10 0 59476  44142.000000  0      69132.748   6416075.048  -2517344.574
10 0 59476  44262.000000  0     257104.847   6684799.323  -1656295.435
10 0 59476  44382.000000  0     444242.695   6833587.656   -766140.206
10 0 59476  44502.000000  0     625151.852   6859817.563    137487.207
10 0 59476  44622.000000  0     794518.271   6763119.328   1038693.439
10 0 59476  44742.000000  0     947243.190   6545384.575   1921613.675
10 0 59476  44862.000000  0    1078572.535   6210729.265   2770699.315
10 0 59476  44982.000000  0    1184219.017   5765413.670   3570999.101
10 0 59476  45102.000000  0    1260474.222   5217718.870   4308429.115
10 0 59476  45222.000000  0    1304308.974   4577785.303   4970025.611
10 0 59476  45342.000000  0    1313454.393   3857411.742   5544175.245
10 0 59476  45462.000000  0    1286467.520   3069827.888   6020812.984
10 0 59476  45582.000000  0    1222777.930   2229444.838   6391594.355
10 0 59476  45702.000000  0    1122714.292   1351585.551   6650036.228
10 0 59476  45822.000000  0     987511.188    452201.389   6791623.981
10 0 59476  45942.000000  0     819295.834   -452417.823   6813884.454
10 0 59476  46062.000000  0     621054.752  -1345937.788   6716428.028
10 0 59476  46182.000000  0     396580.609  -2212274.903   6500955.453
10 0 59476  46302.000000  0     150399.930  -3035886.088   6171230.463
10 0 59476  46422.000000  0    -112316.554  -3802049.649   5733016.159
10 0 59476  46542.000000  0    -385858.789  -4497129.037   5193978.267
10 0 59476  46662.000000  0    -664096.303  -5108819.316   4563559.226
10 0 59476  46782.000000  0    -940610.630  -5626374.760   3852820.259
10 0 59476  46902.000000  0   -1208837.908  -6040808.040   3074249.356
10 0 59476  47022.000000  0   -1462217.733  -6345055.302   2241542.069
10 0 59476  47142.000000  0   -1694345.151  -6534106.138   1369359.250
10 0 59476  47262.000000  0   -1899123.435  -6605093.436    473063.009
10 0 59476  47382.000000  0   -2070910.667  -6557339.069   -431562.246
10 0 59476  47502.000000  0   -2204657.770  -6392355.680  -1328596.630
10 0 59476  47622.000000  0   -2296034.892  -6113804.499  -2202273.367
10 0 59476  47742.000000  0   -2341543.063  -5727410.525  -3037263.323
10 0 59476  47862.000000  0   -2338607.942  -5240836.624  -3818949.382
10 0 59476  47982.000000  0   -2285653.187  -4663520.403  -4533683.556
10 0 59476  48102.000000  0   -2182152.298  -4006480.083  -5169021.734
10 0 59476  48222.000000  0   -2028658.591  -3282095.043  -5713933.423
10 0 59476  48342.000000  0   -1826812.969  -2503865.785  -6158984.478
10 0 59476  48462.000000  0   -1579328.874  -1686157.533  -6496490.058
10 0 59476  48582.000000  0   -1289955.513   -843933.770  -6720635.292
10 0 59476  48702.000000  0    -963421.272      7515.065  -6827564.650
10 0 59476  48822.000000  0    -605357.174    852843.588  -6815440.400
10 0 59476  48942.000000  0    -222201.180   1676920.751  -6684470.497
10 0 59476  49062.000000  0     178913.701   2465093.323  -6436905.356
10 0 59476  49182.000000  0     590288.070   3203441.296  -6077005.517
10 0 59476  49302.000000  0    1003800.597   3879021.837  -5610976.058
10 0 59476  49422.000000  0    1411063.688   4480095.779  -5046869.296
10 0 59476  49542.000000  0    1803589.576   4996335.748  -4394457.993
10 0 59476  49662.000000  0    2172964.021   5419011.471  -3665076.269
10 0 59476  49782.000000  0    2511023.406   5741146.420  -2871431.173
10 0 59476  49902.000000  0    2810032.282   5957644.047  -2027387.594
10 0 59476  50022.000000  0    3062857.356   6065379.363  -1147728.051
10 0 59476  50142.000000  0    3263132.641   6063252.226   -247891.273
10 0 59476  50262.000000  0    3405411.071   5952199.710    656304.462
10 0 59476  50382.000000  0    3485299.213   5735167.356   1548946.345
10 0 59476  50502.000000  0    3499572.092   5417040.916   2414314.931
10 0 59476  50622.000000  0    3446263.740   5004539.516   3237169.760
10 0 59476  50742.000000  0    3324732.267   4506070.607   4003025.512
10 0 59476  50862.000000  0    3135698.182   3931553.880   4698411.380
10 0 59476  50982.000000  0    2881251.270   3292216.915   5311112.440
10 0 59476  51102.000000  0    2564829.110   2600367.202   5830381.191
10 0 59476  51222.000000  0    2191171.258   1869150.053   6247121.238
10 0 59476  51342.000000  0    1766246.677   1112294.088   6554042.425
10 0 59476  51462.000000  0    1297155.329    343850.110   6745781.543
10 0 59476  51582.000000  0     792007.724   -422069.126   6818989.812
10 0 59476  51702.000000  0     259784.279  -1171547.560   6772389.338
10 0 59476  51822.000000  0    -289824.660  -1891119.005   6606794.056
10 0 59476  51942.000000  0    -846595.349  -2568009.098   6325095.850
10 0 59476  52062.000000  0   -1399959.767  -3190362.467   5932215.580
10 0 59476  52182.000000  0   -1939203.359  -3747451.162   5435022.118
10 0 59476  52302.000000  0   -2453672.283  -4229863.397   4842220.444
10 0 59476  52422.000000  0   -2932986.579  -4629669.185   4164206.190
10 0 59476  52542.000000  0   -3367252.946  -4940557.600   3412886.888
10 0 59476  52662.000000  0   -3747270.895  -5157942.419   2601473.449
10 0 59476  52782.000000  0   -4064728.353  -5279034.226   1744247.006
10 0 59476  52902.000000  0   -4312383.794  -5302877.233    856303.705
10 0 59476  53022.000000  0   -4484229.040  -5230348.630    -46717.599
10 0 59476  53142.000000  0   -4575628.799  -5064121.052   -948918.856
10 0 59476  53262.000000  0   -4583432.824  -4808588.406  -1834432.453
10 0 59476  53382.000000  0   -4506057.011  -4469756.078  -2687709.300
10 0 59476  53502.000000  0   -4343532.033  -4055099.410  -3493797.793
10 0 59476  53622.000000  0   -4097519.043  -3573395.652  -4238607.974
10 0 59476  53742.000000  0   -3771293.084  -3034533.994  -4909156.438
10 0 59476  53862.000000  0   -3369694.919  -2449307.862  -5493787.854
10 0 59476  53982.000000  0   -2899053.003  -1829195.273  -5982369.071
10 0 59476  54102.000000  0   -2367078.481  -1186132.087  -6366454.757
10 0 59476  54222.000000  0   -1782734.135   -532282.237  -6639422.345
10 0 59476  54342.000000  0   -1156080.957    120189.906  -6796573.951
10 0 59476  54462.000000  0    -498106.894    759340.393  -6835207.306
10 0 59476  54582.000000  0     179461.922   1373658.685  -6754657.406
10 0 59476  54702.000000  0     864363.996   1952269.005  -6556306.890
10 0 59476  54822.000000  0    1544019.400   2485119.102  -6243567.168
10 0 59476  54942.000000  0    2205756.251   2963153.001  -5821825.750
10 0 59476  55062.000000  0    2837043.354   3378465.063  -5298362.337
10 0 59476  55182.000000  0    3425724.925   3724432.221  -4682234.291
10 0 59476  55302.000000  0    3960255.418   3995824.571  -3984131.933
10 0 59476  55422.000000  0    4429929.443   4188890.021  -3216202.936
10 0 59476  55542.000000  0    4825101.447   4301410.793  -2391847.475
10 0 59476  55662.000000  0    5137388.758   4332729.684  -1525487.843
10 0 59476  55782.000000  0    5359854.688   4283745.617   -632315.856
10 0 59476  55902.000000  0    5487164.721   4156877.605    271977.402
10 0 59476  56022.000000  0    5515713.026   3955998.540   1171482.989
10 0 59476  56142.000000  0    5443716.114   3686338.447   2050362.263
10 0 59476  56262.000000  0    5271269.387   3354359.604   2893134.927
10 0 59476  56382.000000  0    5000364.371   2967608.011   3684960.314
10 0 59476  56502.000000  0    4634867.255   2534543.877   4411905.348
10 0 59476  56622.000000  0    4180459.718   2064355.423   5061191.409
10 0 59476  56742.000000  0    3644545.707   1566764.266   5621420.295
10 0 59476  56862.000000  0    3036121.658   1051822.413   6082772.625
10 0 59476  56982.000000  0    2365618.036    529707.137   6437173.235
10 0 59476  57102.000000  0    1644716.122     10520.633   6678425.193
10 0 59476  57222.000000  0     886142.170   -495904.185   6802314.102
10 0 59476  57342.000000  0     103440.276   -980189.922   6806677.930
10 0 59476  57462.000000  0    -689270.000  -1433587.776   6691441.435
10 0 59476  57582.000000  0   -1477547.943  -1848135.609   6458616.578
10 0 59476  57702.000000  0   -2246893.114  -2216797.463   6112268.130
10 0 59476  57822.000000  0   -2983010.030  -2533582.793   5658448.628
10 0 59476  57942.000000  0   -3672076.811  -2793646.712   5105101.245
10 0 59476  58062.000000  0   -4301010.101  -2993366.578   4461925.224
10 0 59476  58182.000000  0   -4857718.639  -3130393.024   3740209.629
10 0 59476  58302.000000  0   -5331341.857  -3203674.564   2952638.181
10 0 59476  58422.000000  0   -5712469.202  -3213456.188   2113067.938
10 0 59476  58542.000000  0   -5993335.026  -3161251.803   1236282.808
10 0 59476  58662.000000  0   -6167981.916  -3049789.231    337726.689
10 0 59476  58782.000000  0   -6232388.843  -2882929.341   -566775.995
10 0 59476  58902.000000  0   -6184561.562  -2665562.330  -1461308.476
10 0 59476  59022.000000  0   -6024580.152  -2403482.176  -2330151.609
10 0 59476  59142.000000  0   -5754604.121  -2103244.150  -3158066.499
10 0 59476  59262.000000  0   -5378836.978  -1772009.302  -3930565.668
10 0 59476  59382.000000  0   -4903450.540  -1417379.621  -4634166.881
10 0 59476  59502.000000  0   -4336472.599  -1047228.285  -5256625.345
10 0 59476  59622.000000  0   -3687639.852   -669528.514  -5787140.421
99
